LIZZIESAT-2 (LS-2)      
1 62383U 24247G   26068.49140277  .00009388  00000+0  34517-3 0  9997
2 62383  44.9909 117.0823 0004092 327.5136  32.5495 15.28222796 67716
STARLINK-35302          
1 65845U 25221Y   26068.42683312  .00021946  00000+0  75092-3 0  9998
2 65845  53.1586  89.5268 0001206  88.1967 271.9171 15.30198771 24695
